{
  "type": "FeatureCollection",
  "features": [
    {
      "type": "Feature",
      "properties": {
        "norad_id": 34420,
        "name": "COSMOS 2251 DEB",
        "group": "cosmos-2251-debris",
        "lat": -18.485938441556044,
        "lon": -74.16701369187601,
        "alt_km": 601.3875433298681,
        "timestamp": "2025-12-14T14:39:29.763364+00:00",
        "meta_object_name": "COSMOS 2251 DEB",
        "meta_object_id": "1993-036RM",
        "meta_epoch": "2025-12-13T18:49:41.407392",
        "meta_mean_motion": 14.68302606,
        "meta_eccentricity": 0.01066091,
        "meta_inclination": 74.0335,
        "meta_ra_of_asc_node": 101.9379,
        "meta_arg_of_pericenter": 222.85,
        "meta_mean_anomaly": 291.0612,
        "meta_ephemeris_type": 0,
        "meta_classification_type": "U",
        "meta_norad_cat_id": 34420,
        "meta_element_set_no": 999,
        "meta_rev_at_epoch": 89785,
        "meta_bstar": 0.00034272325,
        "meta_mean_motion_dot": 2.12e-05,
        "meta_mean_motion_ddot": 0,
        "tle_line1": "1 34420U 93036RM  25347.78450703  .00002120  00000+0  34272-3 0  9994",
        "tle_line2": "2 34420  74.0335 101.9379 0106609 222.8500 291.0612 14.68302606897852"
      },
      "geometry": {
        "type": "Point",
        "coordinates": [
          -74.16701369187601,
          -18.485938441556044
        ]
      }
    },
    {
      "type": "Feature",
      "properties": {
        "norad_id": 34425,
        "name": "COSMOS 2251 DEB",
        "group": "cosmos-2251-debris",
        "lat": -61.28259837623673,
        "lon": -97.53375778792461,
        "alt_km": 686.7071501298688,
        "timestamp": "2025-12-14T14:39:29.763374+00:00",
        "meta_object_name": "COSMOS 2251 DEB",
        "meta_object_id": "1993-036RS",
        "meta_epoch": "2025-12-13T14:32:58.171776",
        "meta_mean_motion": 14.62136652,
        "meta_eccentricity": 0.00247845,
        "meta_inclination": 74.0203,
        "meta_ra_of_asc_node": 52.8556,
        "meta_arg_of_pericenter": 179.1238,
        "meta_mean_anomaly": 180.9977,
        "meta_ephemeris_type": 0,
        "meta_classification_type": "U",
        "meta_norad_cat_id": 34425,
        "meta_element_set_no": 999,
        "meta_rev_at_epoch": 88753,
        "meta_bstar": 0.0007287949,
        "meta_mean_motion_dot": 3.653e-05,
        "meta_mean_motion_ddot": 0,
        "tle_line1": "1 34425U 93036RS  25347.60622884  .00003653  00000+0  72879-3 0  9998",
        "tle_line2": "2 34425  74.0203  52.8556 0024784 179.1238 180.9977 14.62136652887531"
      },
      "geometry": {
        "type": "Point",
        "coordinates": [
          -97.53375778792461,
          -61.28259837623673
        ]
      }
    },
    {
      "type": "Feature",
      "properties": {
        "norad_id": 34429,
        "name": "COSMOS 2251 DEB",
        "group": "cosmos-2251-debris",
        "lat": 56.30136383201857,
        "lon": -41.59945542079538,
        "alt_km": 435.38676056759596,
        "timestamp": "2025-12-14T14:39:29.763384+00:00",
        "meta_object_name": "COSMOS 2251 DEB",
        "meta_object_id": "1993-036RW",
        "meta_epoch": "2025-12-13T23:06:53.167104",
        "meta_mean_motion": 15.42262962,
        "meta_eccentricity": 0.0007957,
        "meta_inclination": 73.9696,
        "meta_ra_of_asc_node": 165.3506,
        "meta_arg_of_pericenter": 3.0567,
        "meta_mean_anomaly": 122.2327,
        "meta_ephemeris_type": 0,
        "meta_classification_type": "U",
        "meta_norad_cat_id": 34429,
        "meta_element_set_no": 999,
        "meta_rev_at_epoch": 89467,
        "meta_bstar": 0.0057256266,
        "meta_mean_motion_dot": 0.00254856,
        "meta_mean_motion_ddot": 0,
        "tle_line1": "1 34429U 93036RW  25347.96311536  .00254856  00000+0  57256-2 0  9994",
        "tle_line2": "2 34429  73.9696 165.3506 0007957   3.0567 122.2327 15.42262962894671"
      },
      "geometry": {
        "type": "Point",
        "coordinates": [
          -41.59945542079538,
          56.30136383201857
        ]
      }
    },
    {
      "type": "Feature",
      "properties": {
        "norad_id": 34430,
        "name": "COSMOS 2251 DEB",
        "group": "cosmos-2251-debris",
        "lat": -52.09317195955108,
        "lon": 141.45499147451682,
        "alt_km": 796.1205662136945,
        "timestamp": "2025-12-14T14:39:29.763394+00:00",
        "meta_object_name": "COSMOS 2251 DEB",
        "meta_object_id": "1993-036RX",
        "meta_epoch": "2025-12-13T22:33:29.566656",
        "meta_mean_motion": 14.39637982,
        "meta_eccentricity": 0.0060406,
        "meta_inclination": 74.0521,
        "meta_ra_of_asc_node": 301.1476,
        "meta_arg_of_pericenter": 10.5016,
        "meta_mean_anomaly": 349.7384,
        "meta_ephemeris_type": 0,
        "meta_classification_type": "U",
        "meta_norad_cat_id": 34430,
        "meta_element_set_no": 999,
        "meta_rev_at_epoch": 87972,
        "meta_bstar": 0.00066572589,
        "meta_mean_motion_dot": 2.1e-05,
        "meta_mean_motion_ddot": 0,
        "tle_line1": "1 34430U 93036RX  25347.93992554  .00002100  00000+0  66573-3 0  9994",
        "tle_line2": "2 34430  74.0521 301.1476 0060406  10.5016 349.7384 14.39637982879729"
      },
      "geometry": {
        "type": "Point",
        "coordinates": [
          141.45499147451682,
          -52.09317195955108
        ]
      }
    },
    {
      "type": "Feature",
      "properties": {
        "norad_id": 34431,
        "name": "COSMOS 2251 DEB",
        "group": "cosmos-2251-debris",
        "lat": 59.3486279291274,
        "lon": -159.38351463727753,
        "alt_km": 792.3747870976713,
        "timestamp": "2025-12-14T14:39:29.763404+00:00",
        "meta_object_name": "COSMOS 2251 DEB",
        "meta_object_id": "1993-036RY",
        "meta_epoch": "2025-12-13T21:33:20.776032",
        "meta_mean_motion": 14.28778967,
        "meta_eccentricity": 0.00682155,
        "meta_inclination": 74.0747,
        "meta_ra_of_asc_node": 173.103,
        "meta_arg_of_pericenter": 158.4956,
        "meta_mean_anomaly": 201.9084,
        "meta_ephemeris_type": 0,
        "meta_classification_type": "U",
        "meta_norad_cat_id": 34431,
        "meta_element_set_no": 999,
        "meta_rev_at_epoch": 87159,
        "meta_bstar": 0.00083611638,
        "meta_mean_motion_dot": 2.135e-05,
        "meta_mean_motion_ddot": 0,
        "tle_line1": "1 34431U 93036RY  25347.89815713  .00002135  00000+0  83612-3 0  9992",
        "tle_line2": "2 34431  74.0747 173.1030 0068215 158.4956 201.9084 14.28778967871594"
      },
      "geometry": {
        "type": "Point",
        "coordinates": [
          -159.38351463727753,
          59.3486279291274
        ]
      }
    },
    {
      "type": "Feature",
      "properties": {
        "norad_id": 34432,
        "name": "COSMOS 2251 DEB",
        "group": "cosmos-2251-debris",
        "lat": -70.1313573894102,
        "lon": -27.557487453277986,
        "alt_km": 858.2715418672005,
        "timestamp": "2025-12-14T14:39:29.763414+00:00",
        "meta_object_name": "COSMOS 2251 DEB",
        "meta_object_id": "1993-036RZ",
        "meta_epoch": "2025-12-13T17:28:13.788768",
        "meta_mean_motion": 14.02913621,
        "meta_eccentricity": 0.01824306,
        "meta_inclination": 73.8284,
        "meta_ra_of_asc_node": 100.5834,
        "meta_arg_of_pericenter": 183.1172,
        "meta_mean_anomaly": 296.1535,
        "meta_ephemeris_type": 0,
        "meta_classification_type": "U",
        "meta_norad_cat_id": 34432,
        "meta_element_set_no": 999,
        "meta_rev_at_epoch": 85698,
        "meta_bstar": 0.0016293257,
        "meta_mean_motion_dot": 2.901e-05,
        "meta_mean_motion_ddot": 0,
        "tle_line1": "1 34432U 93036RZ  25347.72793737  .00002901  00000+0  16293-2 0  9997",
        "tle_line2": "2 34432  73.8284 100.5834 0182430 183.1172 296.1535 14.02913621856988"
      },
      "geometry": {
        "type": "Point",
        "coordinates": [
          -27.557487453277986,
          -70.1313573894102
        ]
      }
    },
    {
      "type": "Feature",
      "properties": {
        "norad_id": 34433,
        "name": "COSMOS 2251 DEB",
        "group": "cosmos-2251-debris",
        "lat": -10.874320202500074,
        "lon": 148.46979536409626,
        "alt_km": 796.3576483179831,
        "timestamp": "2025-12-14T14:39:29.763424+00:00",
        "meta_object_name": "COSMOS 2251 DEB",
        "meta_object_id": "1993-036SA",
        "meta_epoch": "2025-12-13T13:13:15.212064",
        "meta_mean_motion": 14.12858633,
        "meta_eccentricity": 0.01523461,
        "meta_inclination": 74.0111,
        "meta_ra_of_asc_node": 153.5036,
        "meta_arg_of_pericenter": 291.4042,
        "meta_mean_anomaly": 67.0903,
        "meta_ephemeris_type": 0,
        "meta_classification_type": "U",
        "meta_norad_cat_id": 34433,
        "meta_element_set_no": 999,
        "meta_rev_at_epoch": 85961,
        "meta_bstar": 0.0014808328,
        "meta_mean_motion_dot": 3.05e-05,
        "meta_mean_motion_ddot": 0,
        "tle_line1": "1 34433U 93036SA  25347.55087051  .00003050  00000+0  14808-2 0  9990",
        "tle_line2": "2 34433  74.0111 153.5036 0152346 291.4042  67.0903 14.12858633859614"
      },
      "geometry": {
        "type": "Point",
        "coordinates": [
          148.46979536409626,
          -10.874320202500074
        ]
      }
    }
  ]
}